CCSDS_OMM_VERS = 2.0
CREATION_DATE  = 
ORIGINATOR     = 

OBJECT_NAME    = SL-3 R/B
OBJECT_ID      = 1982-079B
CENTER_NAME    = EARTH
REF_FRAME      = TEME
TIME_SYSTEM    = UTC
MEAN_ELEMENT_THEORY = SGP/SGP4

EPOCH          = 2026-03-14T07:49:26.753376
MEAN_MOTION    = 15.24875015
ECCENTRICITY   = .00252561
INCLINATION    = 81.1480
RA_OF_ASC_NODE = 187.6032
ARG_OF_PERICENTER = 149.2877
MEAN_ANOMALY   = 210.9841

EPHEMERIS_TYPE = 0
CLASSIFICATION_TYPE = U
NORAD_CAT_ID   = 13403
ELEMENT_SET_NO = 999
REV_AT_EPOCH   = 37840
BSTAR          = .33368563E-3
MEAN_MOTION_DOT = .8397E-4
MEAN_MOTION_DDOT = 0

CCSDS_OMM_VERS = 2.0
CREATION_DATE  = 
ORIGINATOR     = 

OBJECT_NAME    = SL-14 R/B
OBJECT_ID      = 1982-092B
CENTER_NAME    = EARTH
REF_FRAME      = TEME
TIME_SYSTEM    = UTC
MEAN_ELEMENT_THEORY = SGP/SGP4

EPOCH          = 2026-03-14T05:17:57.221088
MEAN_MOTION    = 14.86671169
ECCENTRICITY   = .00188204
INCLINATION    = 82.5687
RA_OF_ASC_NODE = 137.1618
ARG_OF_PERICENTER = 287.3988
MEAN_ANOMALY   = 136.1132

EPHEMERIS_TYPE = 0
CLASSIFICATION_TYPE = U
NORAD_CAT_ID   = 13553
ELEMENT_SET_NO = 999
REV_AT_EPOCH   = 32960
BSTAR          = .52293177E-4
MEAN_MOTION_DOT = .49E-5
MEAN_MOTION_DDOT = 0

CCSDS_OMM_VERS = 2.0
CREATION_DATE  = 
ORIGINATOR     = 

OBJECT_NAME    = SL-3 R/B
OBJECT_ID      = 1983-010B
CENTER_NAME    = EARTH
REF_FRAME      = TEME
TIME_SYSTEM    = UTC
MEAN_ELEMENT_THEORY = SGP/SGP4

EPOCH          = 2026-03-14T05:24:53.456544
MEAN_MOTION    = 15.46531792
ECCENTRICITY   = .00176657
INCLINATION    = 81.1059
RA_OF_ASC_NODE = 356.6865
ARG_OF_PERICENTER = 36.1797
MEAN_ANOMALY   = 324.0639

EPHEMERIS_TYPE = 0
CLASSIFICATION_TYPE = U
NORAD_CAT_ID   = 13819
ELEMENT_SET_NO = 999
REV_AT_EPOCH   = 35864
BSTAR          = .38299544E-3
MEAN_MOTION_DOT = .19187E-3
MEAN_MOTION_DDOT = 0

CCSDS_OMM_VERS = 2.0
CREATION_DATE  = 
ORIGINATOR     = 

OBJECT_NAME    = SL-3 R/B
OBJECT_ID      = 1983-075B
CENTER_NAME    = EARTH
REF_FRAME      = TEME
TIME_SYSTEM    = UTC
MEAN_ELEMENT_THEORY = SGP/SGP4

EPOCH          = 2026-03-14T05:45:36.305856
MEAN_MOTION    = 15.38536352
ECCENTRICITY   = .00205585
INCLINATION    = 97.6142
RA_OF_ASC_NODE = 77.9899
ARG_OF_PERICENTER = 208.6402
MEAN_ANOMALY   = 151.3715

EPHEMERIS_TYPE = 0
CLASSIFICATION_TYPE = U
NORAD_CAT_ID   = 14208
ELEMENT_SET_NO = 999
REV_AT_EPOCH   = 33085
BSTAR          = .35305551E-3
MEAN_MOTION_DOT = .13444E-3
MEAN_MOTION_DDOT = 0

CCSDS_OMM_VERS = 2.0
CREATION_DATE  = 
ORIGINATOR     = 

OBJECT_NAME    = COSMOS 1536
OBJECT_ID      = 1984-013A
CENTER_NAME    = EARTH
REF_FRAME      = TEME
TIME_SYSTEM    = UTC
MEAN_ELEMENT_THEORY = SGP/SGP4

EPOCH          = 2026-03-14T02:52:02.348832
MEAN_MOTION    = 15.23887343
ECCENTRICITY   = .00124551
INCLINATION    = 82.5426
RA_OF_ASC_NODE = 103.4463
ARG_OF_PERICENTER = 265.9037
MEAN_ANOMALY   = 94.0777

EPHEMERIS_TYPE = 0
CLASSIFICATION_TYPE = U
NORAD_CAT_ID   = 14699
ELEMENT_SET_NO = 999
REV_AT_EPOCH   = 27329
BSTAR          = .27693971E-3
MEAN_MOTION_DOT = .6729E-4
MEAN_MOTION_DDOT = 0

CCSDS_OMM_VERS = 2.0
CREATION_DATE  = 
ORIGINATOR     = 

OBJECT_NAME    = SL-14 R/B
OBJECT_ID      = 1984-027B
CENTER_NAME    = EARTH
REF_FRAME      = TEME
TIME_SYSTEM    = UTC
MEAN_ELEMENT_THEORY = SGP/SGP4

EPOCH          = 2026-03-13T22:26:57.981120
MEAN_MOTION    = 14.85981509
ECCENTRICITY   = .00170227
INCLINATION    = 82.5392
RA_OF_ASC_NODE = 241.0296
ARG_OF_PERICENTER = 323.2528
MEAN_ANOMALY   = 36.7520

EPHEMERIS_TYPE = 0
CLASSIFICATION_TYPE = U
NORAD_CAT_ID   = 14820
ELEMENT_SET_NO = 999
REV_AT_EPOCH   = 24826
BSTAR          = .66583319E-4
MEAN_MOTION_DOT = .607E-5
MEAN_MOTION_DDOT = 0

CCSDS_OMM_VERS = 2.0
CREATION_DATE  = 
ORIGINATOR     = 

OBJECT_NAME    = SL-8 R/B
OBJECT_ID      = 1985-006B
CENTER_NAME    = EARTH
REF_FRAME      = TEME
TIME_SYSTEM    = UTC
MEAN_ELEMENT_THEORY = SGP/SGP4

EPOCH          = 2026-03-14T06:31:27.787296
MEAN_MOTION    = 14.37786829
ECCENTRICITY   = .00182424
INCLINATION    = 74.0432
RA_OF_ASC_NODE = 252.7158
ARG_OF_PERICENTER = 169.3420
MEAN_ANOMALY   = 3.7246

EPHEMERIS_TYPE = 0
CLASSIFICATION_TYPE = U
NORAD_CAT_ID   = 15483
ELEMENT_SET_NO = 999
REV_AT_EPOCH   = 15468
BSTAR          = .13905092E-3
MEAN_MOTION_DOT = .393E-5
MEAN_MOTION_DDOT = 0

CCSDS_OMM_VERS = 2.0
CREATION_DATE  = 
ORIGINATOR     = 

OBJECT_NAME    = SL-12 R/B(2)
OBJECT_ID      = 1985-042D
CENTER_NAME    = EARTH
REF_FRAME      = TEME
TIME_SYSTEM    = UTC
MEAN_ELEMENT_THEORY = SGP/SGP4

EPOCH          = 2026-03-14T06:09:58.509216
MEAN_MOTION    = 14.21983781
ECCENTRICITY   = .00330657
INCLINATION    = 71.1063
RA_OF_ASC_NODE = 78.0784
ARG_OF_PERICENTER = 120.6163
MEAN_ANOMALY   = 250.7581

EPHEMERIS_TYPE = 0
CLASSIFICATION_TYPE = U
NORAD_CAT_ID   = 15772
ELEMENT_SET_NO = 999
REV_AT_EPOCH   = 11504
BSTAR          = .97550932E-4
MEAN_MOTION_DOT = .169E-5
MEAN_MOTION_DDOT = 0

CCSDS_OMM_VERS = 2.0
CREATION_DATE  = 
ORIGINATOR     = 

OBJECT_NAME    = SL-14 R/B
OBJECT_ID      = 1985-069B
CENTER_NAME    = EARTH
REF_FRAME      = TEME
TIME_SYSTEM    = UTC
MEAN_ELEMENT_THEORY = SGP/SGP4

EPOCH          = 2026-03-14T06:07:52.888800
MEAN_MOTION    = 14.86439080
ECCENTRICITY   = .00188869
INCLINATION    = 82.5292
RA_OF_ASC_NODE = 20.6403
ARG_OF_PERICENTER = 172.4927
MEAN_ANOMALY   = 187.6577

EPHEMERIS_TYPE = 0
CLASSIFICATION_TYPE = U
NORAD_CAT_ID   = 15945
ELEMENT_SET_NO = 999
REV_AT_EPOCH   = 17351
BSTAR          = .67748763E-4
MEAN_MOTION_DOT = .624E-5
MEAN_MOTION_DDOT = 0

CCSDS_OMM_VERS = 2.0
CREATION_DATE  = 
ORIGINATOR     = 

OBJECT_NAME    = SL-16 R/B
OBJECT_ID      = 1985-097B
CENTER_NAME    = EARTH
REF_FRAME      = TEME
TIME_SYSTEM    = UTC
MEAN_ELEMENT_THEORY = SGP/SGP4

EPOCH          = 2026-03-14T07:04:55.369056
MEAN_MOTION    = 14.16598163
ECCENTRICITY   = .00097849
INCLINATION    = 71.0018
RA_OF_ASC_NODE = 130.8591
ARG_OF_PERICENTER = 254.0486
MEAN_ANOMALY   = 172.6758

EPHEMERIS_TYPE = 0
CLASSIFICATION_TYPE = U
NORAD_CAT_ID   = 16182
ELEMENT_SET_NO = 999
REV_AT_EPOCH   = 8788
BSTAR          = .10011937E-4
MEAN_MOTION_DOT = -.28E-6
MEAN_MOTION_DDOT = 0

CCSDS_OMM_VERS = 2.0
CREATION_DATE  = 
ORIGINATOR     = 

OBJECT_NAME    = SL-14 R/B
OBJECT_ID      = 1986-006B
CENTER_NAME    = EARTH
REF_FRAME      = TEME
TIME_SYSTEM    = UTC
MEAN_ELEMENT_THEORY = SGP/SGP4

EPOCH          = 2026-03-13T23:05:30.428736
MEAN_MOTION    = 14.86821655
ECCENTRICITY   = .00750726
INCLINATION    = 82.5236
RA_OF_ASC_NODE = 255.7149
ARG_OF_PERICENTER = 258.3339
MEAN_ANOMALY   = 100.9446

EPHEMERIS_TYPE = 0
CLASSIFICATION_TYPE = U
NORAD_CAT_ID   = 16496
ELEMENT_SET_NO = 999
REV_AT_EPOCH   = 14984
BSTAR          = .82985752E-4
MEAN_MOTION_DOT = .804E-5
MEAN_MOTION_DDOT = 0

CCSDS_OMM_VERS = 2.0
CREATION_DATE  = 
ORIGINATOR     = 

OBJECT_NAME    = COSMOS 1743
OBJECT_ID      = 1986-034A
CENTER_NAME    = EARTH
REF_FRAME      = TEME
TIME_SYSTEM    = UTC
MEAN_ELEMENT_THEORY = SGP/SGP4

EPOCH          = 2026-03-14T01:43:14.601792
MEAN_MOTION    = 15.58888161
ECCENTRICITY   = .00016163
INCLINATION    = 82.5290
RA_OF_ASC_NODE = 69.2303
ARG_OF_PERICENTER = 251.9675
MEAN_ANOMALY   = 108.1405

EPHEMERIS_TYPE = 0
CLASSIFICATION_TYPE = U
NORAD_CAT_ID   = 16719
ELEMENT_SET_NO = 999
REV_AT_EPOCH   = 18093
BSTAR          = .4968947E-3
MEAN_MOTION_DOT = .38621E-3
MEAN_MOTION_DDOT = 0

