SL-3 R/B                
1 13403U 82079B   26073.32600409  .00008397  00000+0  33369-3 0  9992
2 13403  81.1480 187.6032 0025256 149.2877 210.9841 15.24875015378405
SL-14 R/B               
1 13553U 82092B   26073.22080117  .00000490  00000+0  52293-4 0  9994
2 13553  82.5687 137.1618 0018820 287.3988 136.1132 14.86671169329602
SL-3 R/B                
1 13819U 83010B   26073.22561871  .00019187  00000+0  38300-3 0  9996
2 13819  81.1059 356.6865 0017665  36.1797 324.0639 15.46531792358641
SL-3 R/B                
1 14208U 83075B   26073.24000354  .00013444  00000+0  35306-3 0  9999
2 14208  97.6142  77.9899 0020558 208.6402 151.3715 15.38536352330850
COSMOS 1536             
1 14699U 84013A   26073.11947163  .00006729  00000+0  27694-3 0  9999
2 14699  82.5426 103.4463 0012455 265.9037  94.0777 15.23887343273299
SL-14 R/B               
1 14820U 84027B   26072.93539330  .00000607  00000+0  66583-4 0  9992
2 14820  82.5392 241.0296 0017022 323.2528  36.7520 14.85981509248262
SL-8 R/B                
1 15483U 85006B   26073.27184939  .00000393  00000+0  13905-3 0  9996
2 15483  74.0432 252.7158 0018242 169.3420   3.7246 14.37786829154686
SL-12 R/B(2)            
1 15772U 85042D   26073.25692719  .00000169  00000+0  97551-4 0  9996
2 15772  71.1063  78.0784 0033065 120.6163 250.7581 14.21983781115045
SL-14 R/B               
1 15945U 85069B   26073.25547325  .00000624  00000+0  67749-4 0  9991
2 15945  82.5292  20.6403 0018886 172.4927 187.6577 14.86439080173513
SL-16 R/B               
1 16182U 85097B   26073.29508529 -.00000028  00000+0  10012-4 0  9993
2 16182  71.0018 130.8591 0009784 254.0486 172.6758 14.16598163 87882
SL-14 R/B               
1 16496U 86006B   26072.96215774  .00000804  00000+0  82986-4 0  9992
2 16496  82.5236 255.7149 0075072 258.3339 100.9446 14.86821655149847
COSMOS 1743             
1 16719U 86034A   26073.07169678  .00038621  00000+0  49689-3 0  9995
2 16719  82.5290  69.2303 0001616 251.9675 108.1405 15.58888161180935
